STARLINK-35964          
1 66796U 25278F   25358.96956721  .00342504  00000+0  16417-2 0  9994
2 66796  42.9904 176.0667 0001422 262.9936  97.0774 15.80991565  3784
STARLINK-36099          
1 66797U 25278G   25359.33334491  .00070988  00000+0  12077-2 0  9993
2 66797  43.0003 176.5506 0001802 273.5758 359.1047 15.50512626  5046
STARLINK-36041          
1 66798U 25278H   25359.33334491  .00065487  00000+0  11153-2 0  9996
2 66798  43.0003 176.5451 0001857 269.2038   5.3970 15.50514899  4823
STARLINK-36044          
1 66799U 25278J   25359.33334491  .00070916  00000+0  12065-2 0  9993
2 66799  43.0004 176.5411 0001611 271.9604   4.5532 15.50513153  4982
STARLINK-35996          
1 66800U 25278K   25359.33334491  .00103023  00000+0  17452-2 0  9997
2 66800  43.0004 176.5317 0001666 257.0116  23.3821 15.50476150  4775
STARLINK-36080          
1 66801U 25278L   25359.33334491  .00072388  00000+0  12312-2 0  9997
2 66801  43.0003 176.5060 0001978 268.5407  21.3936 15.50512389  4989
STARLINK-35604          
1 66802U 25278M   25359.33334491  .00078336  00000+0  13315-2 0  9991
2 66802  43.0003 176.5358 0001880 269.8567   8.5921 15.50500245  4982
STARLINK-35565          
1 66803U 25278N   25359.33334491 -.01918907  00000+0 -45314-1 0  9995
2 66803  43.0014 176.5642 0001023 259.5740   7.5327 15.44377836  5070
STARLINK-36038          
1 66804U 25278P   25359.33334491 -.01734850  00000+0 -39388-1 0  9993
2 66804  43.0002 176.5503 0001257 258.4712  14.9726 15.45728051  4984
STARLINK-36049          
1 66805U 25278Q   25359.33334491 -.02065556  00000+0 -42719-1 0  9997
2 66805  43.0002 176.5149 0001335 255.0760  31.0520 15.48431112  4988
STARLINK-36069          
1 66806U 25278R   25359.33334491  .00070547  00000+0  12004-2 0  9995
2 66806  43.0003 176.5157 0002040 267.3864  18.7189 15.50511633  4774
STARLINK-36000          
1 66807U 25278S   25359.33334491  .00071588  00000+0  12178-2 0  9994
2 66807  43.0003 176.5019 0001652 269.0024  22.8506 15.50511989  5041
