CCSDS_OMM_VERS = 2.0
CREATION_DATE  = 
ORIGINATOR     = 

OBJECT_NAME    = STARLINK-35964
OBJECT_ID      = 2025-278F
CENTER_NAME    = EARTH
REF_FRAME      = TEME
TIME_SYSTEM    = UTC
MEAN_ELEMENT_THEORY = SGP/SGP4

EPOCH          = 2025-12-24T23:16:10.606944
MEAN_MOTION    = 15.80991565
ECCENTRICITY   = .00014224
INCLINATION    = 42.9904
RA_OF_ASC_NODE = 176.0667
ARG_OF_PERICENTER = 262.9936
MEAN_ANOMALY   = 97.0774

EPHEMERIS_TYPE = 0
CLASSIFICATION_TYPE = U
NORAD_CAT_ID   = 66796
ELEMENT_SET_NO = 999
REV_AT_EPOCH   = 378
BSTAR          = .16417187E-2
MEAN_MOTION_DOT = .342504E-2
MEAN_MOTION_DDOT = 0

CCSDS_OMM_VERS = 2.0
CREATION_DATE  = 
ORIGINATOR     = 

OBJECT_NAME    = STARLINK-36099
OBJECT_ID      = 2025-278G
CENTER_NAME    = EARTH
REF_FRAME      = TEME
TIME_SYSTEM    = UTC
MEAN_ELEMENT_THEORY = SGP/SGP4

EPOCH          = 2025-12-25T08:00:01.000224
MEAN_MOTION    = 15.50512626
ECCENTRICITY   = .00018023
INCLINATION    = 43.0003
RA_OF_ASC_NODE = 176.5506
ARG_OF_PERICENTER = 273.5758
MEAN_ANOMALY   = 359.1047

EPHEMERIS_TYPE = 0
CLASSIFICATION_TYPE = U
NORAD_CAT_ID   = 66797
ELEMENT_SET_NO = 999
REV_AT_EPOCH   = 504
BSTAR          = .12077285E-2
MEAN_MOTION_DOT = .70988E-3
MEAN_MOTION_DDOT = 0

CCSDS_OMM_VERS = 2.0
CREATION_DATE  = 
ORIGINATOR     = 

OBJECT_NAME    = STARLINK-36041
OBJECT_ID      = 2025-278H
CENTER_NAME    = EARTH
REF_FRAME      = TEME
TIME_SYSTEM    = UTC
MEAN_ELEMENT_THEORY = SGP/SGP4

EPOCH          = 2025-12-25T08:00:01.000224
MEAN_MOTION    = 15.50514899
ECCENTRICITY   = .00018574
INCLINATION    = 43.0003
RA_OF_ASC_NODE = 176.5451
ARG_OF_PERICENTER = 269.2038
MEAN_ANOMALY   = 5.3970

EPHEMERIS_TYPE = 0
CLASSIFICATION_TYPE = U
NORAD_CAT_ID   = 66798
ELEMENT_SET_NO = 999
REV_AT_EPOCH   = 482
BSTAR          = .11152913E-2
MEAN_MOTION_DOT = .65487E-3
MEAN_MOTION_DDOT = 0

CCSDS_OMM_VERS = 2.0
CREATION_DATE  = 
ORIGINATOR     = 

OBJECT_NAME    = STARLINK-36044
OBJECT_ID      = 2025-278J
CENTER_NAME    = EARTH
REF_FRAME      = TEME
TIME_SYSTEM    = UTC
MEAN_ELEMENT_THEORY = SGP/SGP4

EPOCH          = 2025-12-25T08:00:01.000224
MEAN_MOTION    = 15.50513153
ECCENTRICITY   = .00016119
INCLINATION    = 43.0004
RA_OF_ASC_NODE = 176.5411
ARG_OF_PERICENTER = 271.9604
MEAN_ANOMALY   = 4.5532

EPHEMERIS_TYPE = 0
CLASSIFICATION_TYPE = U
NORAD_CAT_ID   = 66799
ELEMENT_SET_NO = 999
REV_AT_EPOCH   = 498
BSTAR          = .12065214E-2
MEAN_MOTION_DOT = .70916E-3
MEAN_MOTION_DDOT = 0

CCSDS_OMM_VERS = 2.0
CREATION_DATE  = 
ORIGINATOR     = 

OBJECT_NAME    = STARLINK-35996
OBJECT_ID      = 2025-278K
CENTER_NAME    = EARTH
REF_FRAME      = TEME
TIME_SYSTEM    = UTC
MEAN_ELEMENT_THEORY = SGP/SGP4

EPOCH          = 2025-12-25T08:00:01.000224
MEAN_MOTION    = 15.50476150
ECCENTRICITY   = .00016664
INCLINATION    = 43.0004
RA_OF_ASC_NODE = 176.5317
ARG_OF_PERICENTER = 257.0116
MEAN_ANOMALY   = 23.3821

EPHEMERIS_TYPE = 0
CLASSIFICATION_TYPE = U
NORAD_CAT_ID   = 66800
ELEMENT_SET_NO = 999
REV_AT_EPOCH   = 477
BSTAR          = .17452421E-2
MEAN_MOTION_DOT = .103023E-2
MEAN_MOTION_DDOT = 0

CCSDS_OMM_VERS = 2.0
CREATION_DATE  = 
ORIGINATOR     = 

OBJECT_NAME    = STARLINK-36080
OBJECT_ID      = 2025-278L
CENTER_NAME    = EARTH
REF_FRAME      = TEME
TIME_SYSTEM    = UTC
MEAN_ELEMENT_THEORY = SGP/SGP4

EPOCH          = 2025-12-25T08:00:01.000224
MEAN_MOTION    = 15.50512389
ECCENTRICITY   = .00019789
INCLINATION    = 43.0003
RA_OF_ASC_NODE = 176.5060
ARG_OF_PERICENTER = 268.5407
MEAN_ANOMALY   = 21.3936

EPHEMERIS_TYPE = 0
CLASSIFICATION_TYPE = U
NORAD_CAT_ID   = 66801
ELEMENT_SET_NO = 999
REV_AT_EPOCH   = 498
BSTAR          = .12312115E-2
MEAN_MOTION_DOT = .72388E-3
MEAN_MOTION_DDOT = 0

CCSDS_OMM_VERS = 2.0
CREATION_DATE  = 
ORIGINATOR     = 

OBJECT_NAME    = STARLINK-35604
OBJECT_ID      = 2025-278M
CENTER_NAME    = EARTH
REF_FRAME      = TEME
TIME_SYSTEM    = UTC
MEAN_ELEMENT_THEORY = SGP/SGP4

EPOCH          = 2025-12-25T08:00:01.000224
MEAN_MOTION    = 15.50500245
ECCENTRICITY   = .00018802
INCLINATION    = 43.0003
RA_OF_ASC_NODE = 176.5358
ARG_OF_PERICENTER = 269.8567
MEAN_ANOMALY   = 8.5921

EPHEMERIS_TYPE = 0
CLASSIFICATION_TYPE = U
NORAD_CAT_ID   = 66802
ELEMENT_SET_NO = 999
REV_AT_EPOCH   = 498
BSTAR          = .13314778E-2
MEAN_MOTION_DOT = .78336E-3
MEAN_MOTION_DDOT = 0

CCSDS_OMM_VERS = 2.0
CREATION_DATE  = 
ORIGINATOR     = 

OBJECT_NAME    = STARLINK-35565
OBJECT_ID      = 2025-278N
CENTER_NAME    = EARTH
REF_FRAME      = TEME
TIME_SYSTEM    = UTC
MEAN_ELEMENT_THEORY = SGP/SGP4

EPOCH          = 2025-12-25T08:00:01.000224
MEAN_MOTION    = 15.44377836
ECCENTRICITY   = .00010238
INCLINATION    = 43.0014
RA_OF_ASC_NODE = 176.5642
ARG_OF_PERICENTER = 259.5740
MEAN_ANOMALY   = 7.5327

EPHEMERIS_TYPE = 0
CLASSIFICATION_TYPE = U
NORAD_CAT_ID   = 66803
ELEMENT_SET_NO = 999
REV_AT_EPOCH   = 507
BSTAR          = -.453138E-1
MEAN_MOTION_DOT = -.1918907E-1
MEAN_MOTION_DDOT = 0

CCSDS_OMM_VERS = 2.0
CREATION_DATE  = 
ORIGINATOR     = 

OBJECT_NAME    = STARLINK-36038
OBJECT_ID      = 2025-278P
CENTER_NAME    = EARTH
REF_FRAME      = TEME
TIME_SYSTEM    = UTC
MEAN_ELEMENT_THEORY = SGP/SGP4

EPOCH          = 2025-12-25T08:00:01.000224
MEAN_MOTION    = 15.45728051
ECCENTRICITY   = .00012573
INCLINATION    = 43.0002
RA_OF_ASC_NODE = 176.5503
ARG_OF_PERICENTER = 258.4712
MEAN_ANOMALY   = 14.9726

EPHEMERIS_TYPE = 0
CLASSIFICATION_TYPE = U
NORAD_CAT_ID   = 66804
ELEMENT_SET_NO = 999
REV_AT_EPOCH   = 498
BSTAR          = -.39387505E-1
MEAN_MOTION_DOT = -.173485E-1
MEAN_MOTION_DDOT = 0

CCSDS_OMM_VERS = 2.0
CREATION_DATE  = 
ORIGINATOR     = 

OBJECT_NAME    = STARLINK-36049
OBJECT_ID      = 2025-278Q
CENTER_NAME    = EARTH
REF_FRAME      = TEME
TIME_SYSTEM    = UTC
MEAN_ELEMENT_THEORY = SGP/SGP4

EPOCH          = 2025-12-25T08:00:01.000224
MEAN_MOTION    = 15.48431112
ECCENTRICITY   = .00013353
INCLINATION    = 43.0002
RA_OF_ASC_NODE = 176.5149
ARG_OF_PERICENTER = 255.0760
MEAN_ANOMALY   = 31.0520

EPHEMERIS_TYPE = 0
CLASSIFICATION_TYPE = U
NORAD_CAT_ID   = 66805
ELEMENT_SET_NO = 999
REV_AT_EPOCH   = 498
BSTAR          = -.42719498E-1
MEAN_MOTION_DOT = -.2065556E-1
MEAN_MOTION_DDOT = 0

CCSDS_OMM_VERS = 2.0
CREATION_DATE  = 
ORIGINATOR     = 

OBJECT_NAME    = STARLINK-36069
OBJECT_ID      = 2025-278R
CENTER_NAME    = EARTH
REF_FRAME      = TEME
TIME_SYSTEM    = UTC
MEAN_ELEMENT_THEORY = SGP/SGP4

EPOCH          = 2025-12-25T08:00:01.000224
MEAN_MOTION    = 15.50511633
ECCENTRICITY   = .00020405
INCLINATION    = 43.0003
RA_OF_ASC_NODE = 176.5157
ARG_OF_PERICENTER = 267.3864
MEAN_ANOMALY   = 18.7189

EPHEMERIS_TYPE = 0
CLASSIFICATION_TYPE = U
NORAD_CAT_ID   = 66806
ELEMENT_SET_NO = 999
REV_AT_EPOCH   = 477
BSTAR          = .12003698E-2
MEAN_MOTION_DOT = .70547E-3
MEAN_MOTION_DDOT = 0

CCSDS_OMM_VERS = 2.0
CREATION_DATE  = 
ORIGINATOR     = 

OBJECT_NAME    = STARLINK-36000
OBJECT_ID      = 2025-278S
CENTER_NAME    = EARTH
REF_FRAME      = TEME
TIME_SYSTEM    = UTC
MEAN_ELEMENT_THEORY = SGP/SGP4

EPOCH          = 2025-12-25T08:00:01.000224
MEAN_MOTION    = 15.50511989
ECCENTRICITY   = .00016524
INCLINATION    = 43.0003
RA_OF_ASC_NODE = 176.5019
ARG_OF_PERICENTER = 269.0024
MEAN_ANOMALY   = 22.8506

EPHEMERIS_TYPE = 0
CLASSIFICATION_TYPE = U
NORAD_CAT_ID   = 66807
ELEMENT_SET_NO = 999
REV_AT_EPOCH   = 504
BSTAR          = .12178422E-2
MEAN_MOTION_DOT = .71588E-3
MEAN_MOTION_DDOT = 0

